[{"OBJECT_NAME":"STARLINK-3669","OBJECT_ID":"2022-025R","EPOCH":"2026-03-09T06:46:46.342848","MEAN_MOTION":15.29361516,"ECCENTRICITY":0.00011966,"INCLINATION":53.1571,"RA_OF_ASC_NODE":26.2555,"ARG_OF_PERICENTER":96.9163,"MEAN_ANOMALY":263.1974,"EPHEMERIS_TYPE":0,"CLASSIFICATION_TYPE":"U","NORAD_CAT_ID":51971,"ELEMENT_SET_NO":999,"REV_AT_EPOCH":22095,"BSTAR":4.4702096e-5,"MEAN_MOTION_DOT":9.34e-6,"MEAN_MOTION_DDOT":0},{"OBJECT_NAME":"GENMAT-1","OBJECT_ID":"2023-174W","EPOCH":"2026-03-09T18:03:23.351040","MEAN_MOTION":15.32594666,"ECCENTRICITY":0.00074416,"INCLINATION":97.3728,"RA_OF_ASC_NODE":146.8236,"ARG_OF_PERICENTER":169.2515,"MEAN_ANOMALY":190.8888,"EPHEMERIS_TYPE":0,"CLASSIFICATION_TYPE":"U","NORAD_CAT_ID":58276,"ELEMENT_SET_NO":999,"REV_AT_EPOCH":12973,"BSTAR":0.00042157222,"MEAN_MOTION_DOT":0.0001321,"MEAN_MOTION_DDOT":0}]
